[{"OBJECT_NAME":"ONEWEB-0528","OBJECT_ID":"2022-166B","EPOCH":"2026-02-03T04:40:18.695712","MEAN_MOTION":13.21824156,"ECCENTRICITY":0.00014901,"INCLINATION":87.9194,"RA_OF_ASC_NODE":270.7325,"ARG_OF_PERICENTER":82.8192,"MEAN_ANOMALY":277.3112,"EPHEMERIS_TYPE":0,"CLASSIFICATION_TYPE":"U","NORAD_CAT_ID":54643,"ELEMENT_SET_NO":999,"REV_AT_EPOCH":15384,"BSTAR":0.00016436345,"MEAN_MOTION_DOT":8.1e-7,"MEAN_MOTION_DDOT":0},{"OBJECT_NAME":"ONEWEB-0539","OBJECT_ID":"2022-166C","EPOCH":"2026-02-03T03:45:49.483008","MEAN_MOTION":13.21827432,"ECCENTRICITY":0.00014779,"INCLINATION":87.9197,"RA_OF_ASC_NODE":270.7048,"ARG_OF_PERICENTER":75.0862,"MEAN_ANOMALY":285.0436,"EPHEMERIS_TYPE":0,"CLASSIFICATION_TYPE":"U","NORAD_CAT_ID":54644,"ELEMENT_SET_NO":999,"REV_AT_EPOCH":15383,"BSTAR":6.93519e-6,"MEAN_MOTION_DOT":1.6e-7,"MEAN_MOTION_DDOT":0},{"OBJECT_NAME":"ONEWEB-0540","OBJECT_ID":"2022-166D","EPOCH":"2026-02-03T03:55:29.902656","MEAN_MOTION":13.21825134,"ECCENTRICITY":0.00016057,"INCLINATION":87.9193,"RA_OF_ASC_NODE":270.741,"ARG_OF_PERICENTER":79.1099,"MEAN_ANOMALY":281.0215,"EPHEMERIS_TYPE":0,"CLASSIFICATION_TYPE":"U","NORAD_CAT_ID":54645,"ELEMENT_SET_NO":999,"REV_AT_EPOCH":15382,"BSTAR":0.00014738808,"MEAN_MOTION_DOT":7.4e-7,"MEAN_MOTION_DDOT":0},{"OBJECT_NAME":"ONEWEB-0542","OBJECT_ID":"2022-166E","EPOCH":"2026-02-03T04:00:02.104992","MEAN_MOTION":13.21827842,"ECCENTRICITY":0.00016478,"INCLINATION":87.9194,"RA_OF_ASC_NODE":270.6986,"ARG_OF_PERICENTER":69.2893,"MEAN_ANOMALY":290.8418,"EPHEMERIS_TYPE":0,"CLASSIFICATION_TYPE":"U","NORAD_CAT_ID":54646,"ELEMENT_SET_NO":999,"REV_AT_EPOCH":15383,"BSTAR":0.00015273932,"MEAN_MOTION_DOT":7.6e-7,"MEAN_MOTION_DDOT":0},{"OBJECT_NAME":"ONEWEB-0545","OBJECT_ID":"2022-166F","EPOCH":"2026-02-03T04:59:16.314144","MEAN_MOTION":13.21828489,"ECCENTRICITY":0.00017835,"INCLINATION":87.9194,"RA_OF_ASC_NODE":270.7116,"ARG_OF_PERICENTER":67.6831,"MEAN_ANOMALY":292.4492,"EPHEMERIS_TYPE":0,"CLASSIFICATION_TYPE":"U","NORAD_CAT_ID":54647,"ELEMENT_SET_NO":999,"REV_AT_EPOCH":15380,"BSTAR":0.00025798667,"MEAN_MOTION_DOT":1.2e-6,"MEAN_MOTION_DDOT":0},{"OBJECT_NAME":"ONEWEB-0580","OBJECT_ID":"2022-166G","EPOCH":"2026-02-03T04:21:21.861792","MEAN_MOTION":13.21825977,"ECCENTRICITY":0.00018149,"INCLINATION":87.9193,"RA_OF_ASC_NODE":270.7168,"ARG_OF_PERICENTER":72.3934,"MEAN_ANOMALY":287.7398,"EPHEMERIS_TYPE":0,"CLASSIFICATION_TYPE":"U","NORAD_CAT_ID":54648,"ELEMENT_SET_NO":999,"REV_AT_EPOCH":15384,"BSTAR":0.00014194846,"MEAN_MOTION_DOT":7.2e-7,"MEAN_MOTION_DDOT":0},{"OBJECT_NAME":"ONEWEB-0582","OBJECT_ID":"2022-166H","EPOCH":"2026-02-03T03:33:57.607488","MEAN_MOTION":13.21828366,"ECCENTRICITY":0.00017907,"INCLINATION":87.9195,"RA_OF_ASC_NODE":270.7164,"ARG_OF_PERICENTER":67.1582,"MEAN_ANOMALY":292.9741,"EPHEMERIS_TYPE":0,"CLASSIFICATION_TYPE":"U","NORAD_CAT_ID":54649,"ELEMENT_SET_NO":999,"REV_AT_EPOCH":15381,"BSTAR":0.00017190283,"MEAN_MOTION_DOT":8.4e-7,"MEAN_MOTION_DDOT":0},{"OBJECT_NAME":"ONEWEB-0583","OBJECT_ID":"2022-166J","EPOCH":"2026-02-03T03:50:33.300960","MEAN_MOTION":13.21827837,"ECCENTRICITY":0.00014984,"INCLINATION":87.9193,"RA_OF_ASC_NODE":270.7375,"ARG_OF_PERICENTER":77.652,"MEAN_ANOMALY":282.4781,"EPHEMERIS_TYPE":0,"CLASSIFICATION_TYPE":"U","NORAD_CAT_ID":54650,"ELEMENT_SET_NO":999,"REV_AT_EPOCH":15382,"BSTAR":0.00020916733,"MEAN_MOTION_DOT":9.9e-7,"MEAN_MOTION_DDOT":0},{"OBJECT_NAME":"ONEWEB-0584","OBJECT_ID":"2022-166K","EPOCH":"2026-02-03T04:18:59.326848","MEAN_MOTION":13.21828255,"ECCENTRICITY":0.0001819,"INCLINATION":87.9196,"RA_OF_ASC_NODE":270.7213,"ARG_OF_PERICENTER":74.2307,"MEAN_ANOMALY":285.9027,"EPHEMERIS_TYPE":0,"CLASSIFICATION_TYPE":"U","NORAD_CAT_ID":54651,"ELEMENT_SET_NO":999,"REV_AT_EPOCH":15381,"BSTAR":-3.0840354e-5,"MEAN_MOTION_DOT":0,"MEAN_MOTION_DDOT":0},{"OBJECT_NAME":"ONEWEB-0585","OBJECT_ID":"2022-166L","EPOCH":"2026-02-03T04:54:32.473728","MEAN_MOTION":13.218257,"ECCENTRICITY":0.00015327,"INCLINATION":87.9192,"RA_OF_ASC_NODE":270.7004,"ARG_OF_PERICENTER":86.529,"MEAN_ANOMALY":273.6019,"EPHEMERIS_TYPE":0,"CLASSIFICATION_TYPE":"U","NORAD_CAT_ID":54652,"ELEMENT_SET_NO":999,"REV_AT_EPOCH":15382,"BSTAR":0.0003760087,"MEAN_MOTION_DOT":1.68e-6,"MEAN_MOTION_DDOT":0},{"OBJECT_NAME":"ONEWEB-0586","OBJECT_ID":"2022-166M","EPOCH":"2026-02-03T03:24:29.441088","MEAN_MOTION":13.21824802,"ECCENTRICITY":0.00015672,"INCLINATION":87.9198,"RA_OF_ASC_NODE":270.738,"ARG_OF_PERICENTER":78.4844,"MEAN_ANOMALY":281.6466,"EPHEMERIS_TYPE":0,"CLASSIFICATION_TYPE":"U","NORAD_CAT_ID":54653,"ELEMENT_SET_NO":999,"REV_AT_EPOCH":15381,"BSTAR":0.00036049173,"MEAN_MOTION_DOT":1.62e-6,"MEAN_MOTION_DDOT":0},{"OBJECT_NAME":"ONEWEB-0587","OBJECT_ID":"2022-166N","EPOCH":"2026-02-03T03:38:43.104192","MEAN_MOTION":13.21819501,"ECCENTRICITY":0.00015325,"INCLINATION":87.9204,"RA_OF_ASC_NODE":270.697,"ARG_OF_PERICENTER":96.7118,"MEAN_ANOMALY":263.419,"EPHEMERIS_TYPE":0,"CLASSIFICATION_TYPE":"U","NORAD_CAT_ID":54654,"ELEMENT_SET_NO":999,"REV_AT_EPOCH":15397,"BSTAR":-0.0024226562,"MEAN_MOTION_DOT":-9.87e-6,"MEAN_MOTION_DDOT":0},{"OBJECT_NAME":"ONEWEB-0589","OBJECT_ID":"2022-166P","EPOCH":"2026-02-03T05:08:44.776032","MEAN_MOTION":13.21828229,"ECCENTRICITY":0.00021655,"INCLINATION":87.9191,"RA_OF_ASC_NODE":270.7136,"ARG_OF_PERICENTER":63.5691,"MEAN_ANOMALY":296.5665,"EPHEMERIS_TYPE":0,"CLASSIFICATION_TYPE":"U","NORAD_CAT_ID":54655,"ELEMENT_SET_NO":999,"REV_AT_EPOCH":15384,"BSTAR":0.0002555712,"MEAN_MOTION_DOT":1.19e-6,"MEAN_MOTION_DDOT":0},{"OBJECT_NAME":"ONEWEB-0590","OBJECT_ID":"2022-166Q","EPOCH":"2026-02-03T03:55:05.321856","MEAN_MOTION":13.21827079,"ECCENTRICITY":0.00019673,"INCLINATION":87.9197,"RA_OF_ASC_NODE":270.7012,"ARG_OF_PERICENTER":92.1353,"MEAN_ANOMALY":268.0006,"EPHEMERIS_TYPE":0,"CLASSIFICATION_TYPE":"U","NORAD_CAT_ID":54656,"ELEMENT_SET_NO":999,"REV_AT_EPOCH":15382,"BSTAR":-0.00014600456,"MEAN_MOTION_DOT":-4.7e-7,"MEAN_MOTION_DDOT":0},{"OBJECT_NAME":"ONEWEB-0591","OBJECT_ID":"2022-166R","EPOCH":"2026-02-03T04:11:53.609856","MEAN_MOTION":13.21825567,"ECCENTRICITY":0.00016484,"INCLINATION":87.9193,"RA_OF_ASC_NODE":270.7226,"ARG_OF_PERICENTER":82.7849,"MEAN_ANOMALY":277.3472,"EPHEMERIS_TYPE":0,"CLASSIFICATION_TYPE":"U","NORAD_CAT_ID":54657,"ELEMENT_SET_NO":999,"REV_AT_EPOCH":15385,"BSTAR":1.2317183e-5,"MEAN_MOTION_DOT":1.8e-7,"MEAN_MOTION_DDOT":0},{"OBJECT_NAME":"ONEWEB-0592","OBJECT_ID":"2022-166S","EPOCH":"2026-02-03T04:16:38.507808","MEAN_MOTION":13.21825314,"ECCENTRICITY":0.00015769,"INCLINATION":87.9203,"RA_OF_ASC_NODE":270.6893,"ARG_OF_PERICENTER":82.0458,"MEAN_ANOMALY":278.0855,"EPHEMERIS_TYPE":0,"CLASSIFICATION_TYPE":"U","NORAD_CAT_ID":54658,"ELEMENT_SET_NO":999,"REV_AT_EPOCH":15373,"BSTAR":0.00014186386,"MEAN_MOTION_DOT":7.2e-7,"MEAN_MOTION_DDOT":0},{"OBJECT_NAME":"ONEWEB-0593","OBJECT_ID":"2022-166T","EPOCH":"2026-02-03T04:49:47.429760","MEAN_MOTION":13.21825949,"ECCENTRICITY":0.00015248,"INCLINATION":87.9194,"RA_OF_ASC_NODE":270.707,"ARG_OF_PERICENTER":78.0971,"MEAN_ANOMALY":282.0333,"EPHEMERIS_TYPE":0,"CLASSIFICATION_TYPE":"U","NORAD_CAT_ID":54659,"ELEMENT_SET_NO":999,"REV_AT_EPOCH":15384,"BSTAR":-0.00041790695,"MEAN_MOTION_DOT":-1.6e-6,"MEAN_MOTION_DDOT":0},{"OBJECT_NAME":"ONEWEB-0594","OBJECT_ID":"2022-166U","EPOCH":"2026-02-03T03:29:14.566272","MEAN_MOTION":13.21825244,"ECCENTRICITY":0.00014923,"INCLINATION":87.9195,"RA_OF_ASC_NODE":270.7365,"ARG_OF_PERICENTER":84.6236,"MEAN_ANOMALY":275.5068,"EPHEMERIS_TYPE":0,"CLASSIFICATION_TYPE":"U","NORAD_CAT_ID":54660,"ELEMENT_SET_NO":999,"REV_AT_EPOCH":15385,"BSTAR":0.00033797104,"MEAN_MOTION_DOT":1.53e-6,"MEAN_MOTION_DDOT":0},{"OBJECT_NAME":"ONEWEB-0595","OBJECT_ID":"2022-166V","EPOCH":"2026-02-03T04:45:03.236832","MEAN_MOTION":13.21824205,"ECCENTRICITY":0.00016066,"INCLINATION":87.9192,"RA_OF_ASC_NODE":270.6975,"ARG_OF_PERICENTER":90.7862,"MEAN_ANOMALY":269.3456,"EPHEMERIS_TYPE":0,"CLASSIFICATION_TYPE":"U","NORAD_CAT_ID":54661,"ELEMENT_SET_NO":999,"REV_AT_EPOCH":15383,"BSTAR":0.00013975019,"MEAN_MOTION_DOT":7.1e-7,"MEAN_MOTION_DDOT":0},{"OBJECT_NAME":"ONEWEB-0596","OBJECT_ID":"2022-166W","EPOCH":"2026-02-03T04:07:08.849280","MEAN_MOTION":13.21825182,"ECCENTRICITY":0.00016047,"INCLINATION":87.9191,"RA_OF_ASC_NODE":270.721,"ARG_OF_PERICENTER":88.6371,"MEAN_ANOMALY":271.4947,"EPHEMERIS_TYPE":0,"CLASSIFICATION_TYPE":"U","NORAD_CAT_ID":54662,"ELEMENT_SET_NO":999,"REV_AT_EPOCH":15383,"BSTAR":0.0001428283,"MEAN_MOTION_DOT":7.2e-7,"MEAN_MOTION_DDOT":0},{"OBJECT_NAME":"ONEWEB-0597","OBJECT_ID":"2022-166X","EPOCH":"2026-02-03T03:41:04.418304","MEAN_MOTION":13.21827908,"ECCENTRICITY":0.00016262,"INCLINATION":87.9195,"RA_OF_ASC_NODE":270.7292,"ARG_OF_PERICENTER":78.2111,"MEAN_ANOMALY":281.9205,"EPHEMERIS_TYPE":0,"CLASSIFICATION_TYPE":"U","NORAD_CAT_ID":54663,"ELEMENT_SET_NO":999,"REV_AT_EPOCH":15383,"BSTAR":0.00026929934,"MEAN_MOTION_DOT":1.24e-6,"MEAN_MOTION_DDOT":0},{"OBJECT_NAME":"ONEWEB-0600","OBJECT_ID":"2022-166Y","EPOCH":"2026-02-03T05:04:00.986592","MEAN_MOTION":13.21828116,"ECCENTRICITY":0.00014916,"INCLINATION":87.9193,"RA_OF_ASC_NODE":270.709,"ARG_OF_PERICENTER":76.3296,"MEAN_ANOMALY":283.8004,"EPHEMERIS_TYPE":0,"CLASSIFICATION_TYPE":"U","NORAD_CAT_ID":54664,"ELEMENT_SET_NO":999,"REV_AT_EPOCH":15381,"BSTAR":0.00029596181,"MEAN_MOTION_DOT":1.35e-6,"MEAN_MOTION_DDOT":0},{"OBJECT_NAME":"ONEWEB-0601","OBJECT_ID":"2022-166Z","EPOCH":"2026-02-03T04:52:09.888672","MEAN_MOTION":13.21828259,"ECCENTRICITY":0.00017186,"INCLINATION":87.9193,"RA_OF_ASC_NODE":270.7283,"ARG_OF_PERICENTER":72.2322,"MEAN_ANOMALY":287.9,"EPHEMERIS_TYPE":0,"CLASSIFICATION_TYPE":"U","NORAD_CAT_ID":54665,"ELEMENT_SET_NO":999,"REV_AT_EPOCH":15400,"BSTAR":0.00024230495,"MEAN_MOTION_DOT":1.13e-6,"MEAN_MOTION_DDOT":0}]
